{"fetched_at":"2026-07-10T07:59:16.296Z","source":"https://celestrak.org/NORAD/elements/gp.php?NAME=RADARSAT&FORMAT=JSON","constellation":"radarsat-2","records":[{"OBJECT_NAME":"RADARSAT-2","OBJECT_ID":"2007-061A","EPOCH":"2026-07-09T20:21:34.649280","CLASSIFICATION_TYPE":"U","MEAN_MOTION":14.29982179,"ECCENTRICITY":0.0001312,"INCLINATION":98.5786,"RA_OF_ASC_NODE":197.4567,"ARG_OF_PERICENTER":84.6959,"MEAN_ANOMALY":275.4373,"EPHEMERIS_TYPE":0,"NORAD_CAT_ID":32382,"ELEMENT_SET_NO":999,"REV_AT_EPOCH":96919,"BSTAR":0.000018404,"MEAN_MOTION_DOT":4e-8,"MEAN_MOTION_DDOT":0}]}
