RADARSAT-2              
1 32382U 07061A   26190.84831770  .00000004  00000+0  18404-4 0  9992
2 32382  98.5786 197.4567 0001312  84.6959 275.4373 14.29982179969197
